{
  "type": "FeatureCollection",
  "features": [
    {
      "type": "Feature",
      "properties": {
        "norad_id": 66815,
        "name": "STARLINK-35985",
        "group": "last-30-days",
        "lat": -1.8232419507017392,
        "lon": 15.501361343258816,
        "alt_km": 404.86609317392504,
        "timestamp": "2025-12-22T09:53:36.144821+00:00",
        "meta_object_name": "STARLINK-35985",
        "meta_object_id": "2025-278AA",
        "meta_epoch": "2025-12-22T04:00:01.998720",
        "meta_mean_motion": 15.5514562,
        "meta_eccentricity": 0.0001329,
        "meta_inclination": 42.9994,
        "meta_ra_of_asc_node": 194.9889,
        "meta_arg_of_pericenter": 259.6466,
        "meta_mean_anomaly": 347.1688,
        "meta_ephemeris_type": 0,
        "meta_classification_type": "U",
        "meta_norad_cat_id": 66815,
        "meta_element_set_no": 999,
        "meta_rev_at_epoch": 456,
        "meta_bstar": -0.033238,
        "meta_mean_motion_dot": -0.02052095,
        "meta_mean_motion_ddot": 0,
        "tle_line1": "1 66815U 25278AA  25356.16668980 -.02052095  00000+0 -33238-1 0  9999",
        "tle_line2": "2 66815  42.9994 194.9889 0001329 259.6466 347.1688 15.55145620  4562"
      },
      "geometry": {
        "type": "Point",
        "coordinates": [
          15.501361343258816,
          -1.8232419507017392
        ]
      }
    },
    {
      "type": "Feature",
      "properties": {
        "norad_id": 66816,
        "name": "STARLINK-36098",
        "group": "last-30-days",
        "lat": 3.4036648357260786,
        "lon": 9.90370469662138,
        "alt_km": 404.32852460122285,
        "timestamp": "2025-12-22T09:53:36.144831+00:00",
        "meta_object_name": "STARLINK-36098",
        "meta_object_id": "2025-278AB",
        "meta_epoch": "2025-12-22T04:00:01.998720",
        "meta_mean_motion": 15.55141489,
        "meta_eccentricity": 0.0001351,
        "meta_inclination": 42.9993,
        "meta_ra_of_asc_node": 195.0084,
        "meta_arg_of_pericenter": 260.3913,
        "meta_mean_anomaly": 338.7568,
        "meta_ephemeris_type": 0,
        "meta_classification_type": "U",
        "meta_norad_cat_id": 66816,
        "meta_element_set_no": 999,
        "meta_rev_at_epoch": 431,
        "meta_bstar": -0.033133,
        "meta_mean_motion_dot": -0.02046067,
        "meta_mean_motion_ddot": 0,
        "tle_line1": "1 66816U 25278AB  25356.16668980 -.02046067  00000+0 -33133-1 0  9996",
        "tle_line2": "2 66816  42.9993 195.0084 0001351 260.3913 338.7568 15.55141489  4317"
      },
      "geometry": {
        "type": "Point",
        "coordinates": [
          9.90370469662138,
          3.4036648357260786
        ]
      }
    },
    {
      "type": "Feature",
      "properties": {
        "norad_id": 66817,
        "name": "STARLINK-35995",
        "group": "last-30-days",
        "lat": 0.7920206164335701,
        "lon": 12.70351406800592,
        "alt_km": 404.65343760366795,
        "timestamp": "2025-12-22T09:53:36.144840+00:00",
        "meta_object_name": "STARLINK-35995",
        "meta_object_id": "2025-278AC",
        "meta_epoch": "2025-12-22T04:00:01.998720",
        "meta_mean_motion": 15.55148035,
        "meta_eccentricity": 0.0001312,
        "meta_inclination": 42.9991,
        "meta_ra_of_asc_node": 194.9988,
        "meta_arg_of_pericenter": 262.936,
        "meta_mean_anomaly": 340.0408,
        "meta_ephemeris_type": 0,
        "meta_classification_type": "U",
        "meta_norad_cat_id": 66817,
        "meta_element_set_no": 999,
        "meta_rev_at_epoch": 447,
        "meta_bstar": -0.033226,
        "meta_mean_motion_dot": -0.02051614,
        "meta_mean_motion_ddot": 0,
        "tle_line1": "1 66817U 25278AC  25356.16668980 -.02051614  00000+0 -33226-1 0  9994",
        "tle_line2": "2 66817  42.9991 194.9988 0001312 262.9360 340.0408 15.55148035  4478"
      },
      "geometry": {
        "type": "Point",
        "coordinates": [
          12.70351406800592,
          0.7920206164335701
        ]
      }
    },
    {
      "type": "Feature",
      "properties": {
        "norad_id": 66818,
        "name": "STARLINK-35994",
        "group": "last-30-days",
        "lat": 2.0990260699167576,
        "lon": 11.304687345299453,
        "alt_km": 404.5242650485761,
        "timestamp": "2025-12-22T09:53:36.144852+00:00",
        "meta_object_name": "STARLINK-35994",
        "meta_object_id": "2025-278AD",
        "meta_epoch": "2025-12-22T04:00:01.998720",
        "meta_mean_motion": 15.55148688,
        "meta_eccentricity": 0.0001353,
        "meta_inclination": 42.9993,
        "meta_ra_of_asc_node": 195.0041,
        "meta_arg_of_pericenter": 263.4696,
        "meta_mean_anomaly": 337.59,
        "meta_ephemeris_type": 0,
        "meta_classification_type": "U",
        "meta_norad_cat_id": 66818,
        "meta_element_set_no": 999,
        "meta_rev_at_epoch": 447,
        "meta_bstar": -0.033256,
        "meta_mean_motion_dot": -0.02053322,
        "meta_mean_motion_ddot": 0,
        "tle_line1": "1 66818U 25278AD  25356.16668980 -.02053322  00000+0 -33256-1 0  9996",
        "tle_line2": "2 66818  42.9993 195.0041 0001353 263.4696 337.5900 15.55148688  4478"
      },
      "geometry": {
        "type": "Point",
        "coordinates": [
          11.304687345299453,
          2.0990260699167576
        ]
      }
    },
    {
      "type": "Feature",
      "properties": {
        "norad_id": 66819,
        "name": "STARLINK-35989",
        "group": "last-30-days",
        "lat": -0.5159747027539807,
        "lon": 14.102438003689866,
        "alt_km": 404.84412070389226,
        "timestamp": "2025-12-22T09:53:36.144862+00:00",
        "meta_object_name": "STARLINK-35989",
        "meta_object_id": "2025-278AE",
        "meta_epoch": "2025-12-22T04:00:01.998720",
        "meta_mean_motion": 15.55142754,
        "meta_eccentricity": 0.0001375,
        "meta_inclination": 42.9993,
        "meta_ra_of_asc_node": 194.9939,
        "meta_arg_of_pericenter": 265.3367,
        "meta_mean_anomaly": 339.5632,
        "meta_ephemeris_type": 0,
        "meta_classification_type": "U",
        "meta_norad_cat_id": 66819,
        "meta_element_set_no": 999,
        "meta_rev_at_epoch": 447,
        "meta_bstar": -0.033176,
        "meta_mean_motion_dot": -0.02048514,
        "meta_mean_motion_ddot": 0,
        "tle_line1": "1 66819U 25278AE  25356.16668980 -.02048514  00000+0 -33176-1 0  9995",
        "tle_line2": "2 66819  42.9993 194.9939 0001375 265.3367 339.5632 15.55142754  4475"
      },
      "geometry": {
        "type": "Point",
        "coordinates": [
          14.102438003689866,
          -0.5159747027539807
        ]
      }
    },
    {
      "type": "Feature",
      "properties": {
        "norad_id": 66820,
        "name": "KOMPSAT-7",
        "group": "last-30-days",
        "lat": -6.955114222760345,
        "lon": -56.95165377782412,
        "alt_km": 572.7747786096561,
        "timestamp": "2025-12-22T09:53:36.144871+00:00",
        "meta_object_name": "KOMPSAT-7",
        "meta_object_id": "2025-279A",
        "meta_epoch": "2025-12-21T14:43:15.384864",
        "meta_mean_motion": 15.00649834,
        "meta_eccentricity": 0.00110253,
        "meta_inclination": 97.6444,
        "meta_ra_of_asc_node": 301.3241,
        "meta_arg_of_pericenter": 234.4274,
        "meta_mean_anomaly": 125.5923,
        "meta_ephemeris_type": 0,
        "meta_classification_type": "U",
        "meta_norad_cat_id": 66820,
        "meta_element_set_no": 999,
        "meta_rev_at_epoch": 298,
        "meta_bstar": 0.00020207224,
        "meta_mean_motion_dot": 2.499e-05,
        "meta_mean_motion_ddot": 0,
        "tle_line1": "1 66820U 25279A   25355.61337251  .00002499  00000+0  20207-3 0  9992",
        "tle_line2": "2 66820  97.6444 301.3241 0011025 234.4274 125.5923 15.00649834  2983"
      },
      "geometry": {
        "type": "Point",
        "coordinates": [
          -56.95165377782412,
          -6.955114222760345
        ]
      }
    },
    {
      "type": "Feature",
      "properties": {
        "norad_id": 66821,
        "name": "STARLINK-35966",
        "group": "last-30-days",
        "lat": 47.41459901402806,
        "lon": -164.72849658166257,
        "alt_km": 406.4325432764772,
        "timestamp": "2025-12-22T09:53:36.144884+00:00",
        "meta_object_name": "STARLINK-35966",
        "meta_object_id": "2025-280A",
        "meta_epoch": "2025-12-22T04:00:01.998720",
        "meta_mean_motion": 15.5256163,
        "meta_eccentricity": 0.0003437,
        "meta_inclination": 69.9997,
        "meta_ra_of_asc_node": 172.5962,
        "meta_arg_of_pericenter": 273.0668,
        "meta_mean_anomaly": 206.6609,
        "meta_ephemeris_type": 0,
        "meta_classification_type": "U",
        "meta_norad_cat_id": 66821,
        "meta_element_set_no": 999,
        "meta_rev_at_epoch": 441,
        "meta_bstar": -0.0022683,
        "meta_mean_motion_dot": -0.00137548,
        "meta_mean_motion_ddot": 0,
        "tle_line1": "1 66821U 25280A   25356.16668980 -.00137548  00000+0 -22683-2 0  9997",
        "tle_line2": "2 66821  69.9997 172.5962 0003437 273.0668 206.6609 15.52561630  4417"
      },
      "geometry": {
        "type": "Point",
        "coordinates": [
          -164.72849658166257,
          47.41459901402806
        ]
      }
    }
  ]
}